rank,city,state,estimate_population_2017,census_2018,change,land_area_miles_2016,land_area_km_2016,population_density_miles_2016,population_density_km_2016,city_link,area_codes,county,area_land,gov_mayor,area_metro,gov_type,area_water,about_city,lattitude,longitude,country
1,New York City,New York,8398748,8175133,+2.74,301.5  ,780.9 ,28317 ,10933,https://en.wikipedia.org/wiki/New_York_City,area code,nan,• land,• mayor,• metro,• type,• water, , 40.663, -73.9387,USA
2,Los Angeles,California,3990456,3792621,+5.22,468.7  ,1213.9 ,8484 ,3276,https://en.wikipedia.org/wiki/Los_Angeles,area codes,county,• land,• mayor,• metro,• type,• water, ,34.0194,-118.4108,USA
3,Chicago,Illinois,2705994,2695598,+0.39,227.3  ,588.7 ,11900 ,4600,https://en.wikipedia.org/wiki/Chicago,area codes,counties,• land,• mayor,• metro,• type,• water, , 41.837, -87.6818,USA
4,Houston,Texas,2325502,2100263,+10.72,637.5  ,1651.1 ,3613 ,1395,https://en.wikipedia.org/wiki/Houston,area codes,counties,• land,• mayor,• metro,• type,nan, , 29.786, -95.3909,USA
5,Phoenix,Arizona,1660272,1445632,+14.85,517.6  ,1340.6 ,3120 ,1200,"https://en.wikipedia.org/wiki/Phoenix,_Arizona",area codes,county,• land,• mayor,• metro,• type,• water, ,33.5722,-112.0901,USA
6,Philadelphia,Pennsylvania,1584138,1526006,+3.81,134.2  ,347.6 ,11683 ,4511,https://en.wikipedia.org/wiki/Philadelphia,area codes,county,• land,• mayor,• metro,• type,• water, , 40.009, -75.1333,USA
7,San Antonio,Texas,1532233,1327407,+15.43,461.0  ,1194.0 ,3238 ,1250,https://en.wikipedia.org/wiki/San_Antonio,area codes,counties,• land,• mayor,• metro,• type,• water, , 29.472, -98.5251,USA
8,San Diego,California,1425976,1307402,+9.07,325.2  ,842.3 ,4325 ,1670,https://en.wikipedia.org/wiki/San_Diego,area codes,county,• land,• mayor,• metro,• type,• water, ,32.8153,-117.1350,USA
9,Dallas,Texas,1345047,1197816,+12.29,340.9  ,882.9 ,3866 ,1493,https://en.wikipedia.org/wiki/Dallas,area codes,counties,• land,• mayor,• metro,• type,• water, , 32.793, -96.7665,USA
10,San Jose,California,1030119,945942,+8.90,177.5  ,459.7 ,5777 ,2231,"https://en.wikipedia.org/wiki/San_Jose,_California",area code,county,• land,• mayor,• metro,• type,• water, ,37.2967,-121.8189,USA
11,Austin,Texas,964254,790390,+22.00,312.7  ,809.9 ,3031 ,1170,"https://en.wikipedia.org/wiki/Austin,_Texas",area codes,counties,• land,• mayor,• metro,• type,• water, , 30.303, -97.7544,USA
12,Jacksonville,Florida,903889,821784,+9.99,747.4  ,1935.8 ,1178 ,455,"https://en.wikipedia.org/wiki/Jacksonville,_Florida",area code,county,• land,• mayor,• metro,• type,• water, , 30.336, -81.6616,USA
13,Fort Worth,Texas,895008,741206,+20.75,342.9  ,888.1 ,2491 ,962,"https://en.wikipedia.org/wiki/Fort_Worth,_Texas",area codes,counties,• land,• mayor,• metro,• type,• water, , 32.781, -97.3467,USA
14,Columbus,Ohio,892533,787033,+13.40,218.5  ,565.9 ,3936 ,1520,"https://en.wikipedia.org/wiki/Columbus,_Ohio",area codes,counties,• land,• mayor,• metro,nan,• water, , 39.985, -82.9848,USA
15,San Francisco,California,883305,805235,+9.70,46.9  ,121.5 ,18569 ,7170,https://en.wikipedia.org/wiki/San_Francisco,area codes,nan,• land,• mayor,• metro,• type,• water, ,37.7272,-123.0322,USA
16,Charlotte,North Carolina,872498,731424,+19.29,305.4  ,791.0 ,2757 ,1064,"https://en.wikipedia.org/wiki/Charlotte,_North_Carolina",area codes,county,nan,• mayor,• metro,• type,nan, , 35.207, -80.8310,USA
17,Indianapolis,Indiana,867125,820445,+5.69,361.5  ,936.3 ,2366 ,914,https://en.wikipedia.org/wiki/Indianapolis,area code,county,• land,• mayor,• metro,• type,• water, , 39.776, -86.1459,USA
18,Seattle,Washington,744955,608660,+22.39,83.8  ,217.0 ,8405 ,3245,https://en.wikipedia.org/wiki/Seattle,area code,county,• land,• mayor,• metro,• type,• water, ,47.6205,-122.3509,USA
19,Denver,Colorado,716492,600158,+19.38,153.3  ,397.0 ,4521 ,1746,https://en.wikipedia.org/wiki/Denver,area code,nan,• land,• mayor,• metro,• type,• water, ,39.7619,-104.8811,USA
20,"Washington, D.C.",District of Columbia,702455,601723,+16.74,61.1  ,158.2 ,11148 ,4304,"https://en.wikipedia.org/wiki/Washington,_D.C.",area code,nan,• land,• mayor,• metro,nan,• water, , 38.904, -77.0172,USA
21,Boston,Massachusetts,694583,617594,+12.47,48.3  ,125.1 ,13938 ,5381,https://en.wikipedia.org/wiki/Boston,area codes,county,• land,• mayor,• metro,• type,• water, , 42.332, -71.0202,USA
22,El Paso,Texas,682669,649121,+5.17,256.8  ,665.1 ,2660 ,1030,"https://en.wikipedia.org/wiki/El_Paso,_Texas",area codes,county,• land,nan,• metro,• type,• water, ,31.8484,-106.4270,USA
23,Detroit,Michigan,672662,713777,−5.76,138.8  ,359.5 ,4847 ,1871,https://en.wikipedia.org/wiki/Detroit,area code,county,• land,• mayor,• metro,• type,• water, , 42.383, -83.1022,USA
24,Nashville,Tennessee,669053,601222,+11.28,475.9  ,1232.6 ,1388 ,536,"https://en.wikipedia.org/wiki/Nashville,_Tennessee",area code,county,• land,• mayor,• metro,nan,• water, , 36.171, -86.7850,USA
25,Portland,Oregon,653115,583776,+11.88,133.5  ,345.8 ,4793 ,1851,"https://en.wikipedia.org/wiki/Portland,_Oregon",area codes,counties,• land,• mayor,• metro,• type,• water, ,45.5370,-122.6500,USA
26,Memphis,Tennessee,650618,646889,+0.58,317.4  ,822.1 ,2056 ,794,"https://en.wikipedia.org/wiki/Memphis,_Tennessee",area code,county,• land,• mayor,• metro,nan,• water, , 35.102, -89.9774,USA
27,Oklahoma City,Oklahoma,649021,579999,+11.90,606.3  ,1570.3 ,1053 ,407,https://en.wikipedia.org/wiki/Oklahoma_City,area code,counties,• land,• mayor,• metro,• type,• water, , 35.467, -97.5137,USA
28,Las Vegas,Nevada,644644,583756,+10.43,134.4  ,348.1 ,4709 ,1818,https://en.wikipedia.org/wiki/Las_Vegas,nan,county,• land,• mayor,• metro,• type,• water, ,36.2292,-115.2601,USA
29,Louisville,Kentucky,620118,597337,+3.81,263.5  ,682.5 ,2339 ,903,"https://en.wikipedia.org/wiki/Louisville,_Kentucky",area code,county,• land,• mayor,• metro,• type,• water, , 38.165, -85.6474,USA
30,Baltimore,Maryland,602495,620961,−2.97,80.9  ,209.5 ,7598 ,2934,https://en.wikipedia.org/wiki/Baltimore,area codes,county,• land,• mayor,• metro,• type,• water, , 39.300, -76.6105,USA
31,Milwaukee,Wisconsin,592025,594833,−0.47,96.2  ,249.2 ,6186 ,2388,https://en.wikipedia.org/wiki/Milwaukee,area code,counties,• land,• mayor,• metro,• type,• water, , 43.063, -87.9667,USA
32,Albuquerque,New Mexico,560218,545852,+2.63,188.2  ,487.4 ,2972 ,1147,"https://en.wikipedia.org/wiki/Albuquerque,_New_Mexico",area codes,county,• land,• mayor,• metro,• type,• water, ,35.1056,-106.6474,USA
33,Tucson,Arizona,545975,520116,+4.97,230.8  ,597.8 ,2299 ,888,"https://en.wikipedia.org/wiki/Tucson,_Arizona",area code,county,• land,• mayor,• metro,• type,• water, ,32.1531,-110.8706,USA
34,Fresno,California,530093,494665,+7.16,114.4  ,296.3 ,4563 ,1762,"https://en.wikipedia.org/wiki/Fresno,_California",nan,nan,nan,nan,nan,nan,nan, ,36.7836,-119.7934,USA
35,Mesa,Arizona,508958,439041,+15.92,137.9  ,357.2 ,3514 ,1357,"https://en.wikipedia.org/wiki/Mesa,_Arizona",area code,county,• land,• mayor,• metro,nan,• water, ,33.4019,-111.7174,USA
36,Sacramento,California,508529,466488,+9.01,97.9  ,253.6 ,5059 ,1953,"https://en.wikipedia.org/wiki/Sacramento,_California",area code,county,• land,• mayor,• metro,• type,• water, ,38.5666,-121.4686,USA
37,Atlanta,Georgia,498044,420003,+18.58,133.5  ,345.8 ,3539 ,1366,https://en.wikipedia.org/wiki/Atlanta,area codes,counties,• land,• mayor,• metro,nan,• water, , 33.762, -84.4227,USA
38,Kansas City,Missouri,491918,459787,+6.99,315.0  ,815.8 ,1528 ,590,"https://en.wikipedia.org/wiki/Kansas_City,_Missouri",area codes,counties,• land,• mayor,• metro,nan,• water, , 39.125, -94.5510,USA
39,Colorado Springs,Colorado,472688,416427,+13.51,195.6  ,506.6 ,2378 ,918,"https://en.wikipedia.org/wiki/Colorado_Springs,_Colorado",area code,county,• land,• mayor,• metro,• type,• water, ,38.8673,-104.7607,USA
40,Miami,Florida,470914,399457,+17.89,36.0  ,93.2 ,12599 ,4865,https://en.wikipedia.org/wiki/Miami,area code,county,• land,• mayor,• metro,• type,• water, , 25.775, -80.2086,USA
41,Raleigh,North Carolina,469298,403892,+16.19,145.1  ,375.8 ,3163 ,1221,"https://en.wikipedia.org/wiki/Raleigh,_North_Carolina",area code,counties,• land,• mayor,nan,• type,• water, , 35.830, -78.6418,USA
42,Omaha,Nebraska,468262,408958,+14.50,133.2  ,345.0 ,3356 ,1296,"https://en.wikipedia.org/wiki/Omaha,_Nebraska",area code,county,• land,• mayor,• metro,nan,• water, , 41.264, -96.0451,USA
43,Long Beach,California,467354,462257,+1.10,50.3  ,130.3 ,9347 ,3609,"https://en.wikipedia.org/wiki/Long_Beach,_California",area code,county,• land,• mayor,• metro,• type,• water, ,33.8092,-118.1553,USA
44,Virginia Beach,Virginia,450189,437994,+2.78,244.7  ,633.8 ,1850 ,710,"https://en.wikipedia.org/wiki/Virginia_Beach,_Virginia",nan,county,• land,• mayor,• metro,• type,• water, , 36.780, -76.0252,USA
45,Oakland,California,429082,390724,+9.82,55.9  ,144.8 ,7514 ,2901,"https://en.wikipedia.org/wiki/Oakland,_California",area code,county,• land,• mayor,nan,• type,• water, ,37.7698,-122.2257,USA
46,Minneapolis,Minnesota,425403,382578,+11.19,54.0  ,139.9 ,7660 ,2960,https://en.wikipedia.org/wiki/Minneapolis,area code,county,• land,• mayor,• metro,• type,• water, , 44.963, -93.2683,USA
47,Tulsa,Oklahoma,400669,391906,+2.24,196.8  ,509.7 ,2048 ,791,"https://en.wikipedia.org/wiki/Tulsa,_Oklahoma",area code,counties,• land,• mayor,• metro,• type,• water, , 36.127, -95.9023,USA
48,Arlington,Texas,398112,365438,+8.94,95.8  ,248.1 ,4100 ,1600,"https://en.wikipedia.org/wiki/Arlington,_Texas",area codes,county,• land,• mayor,• metro,• type,• water, , 32.700, -97.1247,USA
49,Tampa,Florida,392890,335709,+17.03,113.4  ,293.7 ,3326 ,1284,"https://en.wikipedia.org/wiki/Tampa,_Florida",nan,nan,nan,nan,nan,nan,nan, , 27.970, -82.4797,USA
50,New Orleans,Louisiana,391006,343829,+13.72,169.4  ,438.7 ,2311 ,892,https://en.wikipedia.org/wiki/New_Orleans,nan,nan,• land,• mayor,• metro,• type,• water, , 30.053, -89.9345,USA
51,Wichita,Kansas,389255,382368,+1.80,160.4  ,415.4 ,2431 ,939,"https://en.wikipedia.org/wiki/Wichita,_Kansas",area code,county,• land,• mayor,• metro,• type,• water, , 37.690, -97.3459,USA
52,Cleveland,Ohio,383793,396815,−3.28,77.7  ,201.2 ,4965 ,1917,https://en.wikipedia.org/wiki/Cleveland,area code,county,• land,• mayor,• metro,• type,• water, , 41.478, -81.6794,USA
53,Bakersfield,California,383579,347483,+10.39,148.8  ,385.4 ,2529 ,976,"https://en.wikipedia.org/wiki/Bakersfield,_California",area code,county,• land,• mayor,• metro,• type,• water, ,35.3212,-119.0183,USA
54,Aurora,Colorado,374114,325078,+15.08,153.5  ,397.6 ,2356 ,910,"https://en.wikipedia.org/wiki/Aurora,_Colorado",area codes,counties,• land,• mayor,• metro,• type,• water, ,39.6880,-104.6897,USA
55,Anaheim,California,352005,336265,+4.68,50.0  ,129.5 ,7021 ,2711,"https://en.wikipedia.org/wiki/Anaheim,_California",area codes,county,• land,• mayor,nan,nan,• water, ,33.8555,-117.7601,USA
56,Honolulu,Hawaii,347397,337256,+3.01,60.5  ,156.7 ,5815 ,2245,https://en.wikipedia.org/wiki/Honolulu,area code,county,• land,• mayor,• metro,nan,• water, ,21.3243,-157.8476,USA
57,Santa Ana,California,332725,324528,+2.53,27.1  ,70.2 ,12333 ,4762,"https://en.wikipedia.org/wiki/Santa_Ana,_California",area code,county,• land,• mayor,nan,nan,• water, ,33.7363,-117.8830,USA
58,Riverside,California,330063,303871,+8.62,81.2  ,210.3 ,3999 ,1544,"https://en.wikipedia.org/wiki/Riverside,_California",area code,county,• land,nan,nan,• type,• water, ,33.9381,-117.3932,USA
59,Corpus Christi,Texas,326554,305215,+6.99,174.6  ,452.2 ,1866 ,720,"https://en.wikipedia.org/wiki/Corpus_Christi,_Texas",area code,counties,• land,nan,• metro,• type,• water, , 27.754, -97.1734,USA
60,Lexington,Kentucky,323780,295803,+9.46,283.6  ,734.5 ,1123 ,434,"https://en.wikipedia.org/wiki/Lexington,_Kentucky",area code,counties,• land,• mayor,• metro,nan,• water, , 38.040, -84.4583,USA
61,Stockton,California,311178,291707,+6.67,61.7  ,159.8 ,4977 ,1922,"https://en.wikipedia.org/wiki/Stockton,_California",area code,county,• land,• mayor,• metro,• type,• water, ,37.9763,-121.3133,USA
62,Henderson,Nevada,310390,257729,+20.43,104.7  ,271.2 ,2798 ,1080,"https://en.wikipedia.org/wiki/Henderson,_Nevada",area code,county,• land,• mayor,nan,• type,• water, ,36.0097,-115.0357,USA
63,Saint Paul,Minnesota,307695,285068,+7.94,52.0  ,134.7 ,5815 ,2245,"https://en.wikipedia.org/wiki/Saint_Paul,_Minnesota",area code,county,• land,• mayor,• metro,nan,• water, , 44.948, -93.1041,USA
64,St. Louis,Missouri,302838,319294,−5.15,62.0  ,160.6 ,5023 ,1939,https://en.wikipedia.org/wiki/St._Louis,area code,nan,• land,• mayor,• metro,• type,• water, , 38.635, -90.2446,USA
65,Cincinnati,Ohio,302605,296943,+1.91,77.4  ,200.5 ,3860 ,1490,https://en.wikipedia.org/wiki/Cincinnati,area code,county,• land,• mayor,• metro,• type,• water, , 39.140, -84.5058,USA
66,Pittsburgh,Pennsylvania,301048,305704,−1.52,55.4  ,143.5 ,5481 ,2116,https://en.wikipedia.org/wiki/Pittsburgh,area codes,county,• land,• mayor,• metro,• type,• water, , 40.439, -79.9766,USA
67,Greensboro,North Carolina,294722,269666,+9.29,128.3  ,332.3 ,2237 ,864,"https://en.wikipedia.org/wiki/Greensboro,_North_Carolina",area code,county,• land,• mayor,nan,• type,• water, , 36.095, -79.8270,USA
68,Anchorage,Alaska,291538,291826,−0.10,1706.6  ,4420.1 ,175 ,68,"https://en.wikipedia.org/wiki/Anchorage,_Alaska",area code,nan,• land,• mayor,• metro,nan,• water, ,61.1743,-149.2843,USA
69,Plano,Texas,288061,259841,+10.86,71.7  ,185.7 ,3990 ,1540,"https://en.wikipedia.org/wiki/Plano,_Texas",area codes,counties,• land,• mayor,• metro,• type,• water, , 33.050, -96.7479,USA
70,Lincoln,Nebraska,287401,258379,+11.23,92.1  ,238.5 ,3044 ,1175,"https://en.wikipedia.org/wiki/Lincoln,_Nebraska",area codes,county,• land,• mayor,• metro,• type,• water, , 40.810, -96.6803,USA
71,Orlando,Florida,285713,238300,+19.90,105.2  ,272.5 ,2635 ,1017,"https://en.wikipedia.org/wiki/Orlando,_Florida",area codes,county,• land,• mayor,• metro,• type,• water, , 28.416, -81.2736,USA
72,Irvine,California,282572,212375,+33.05,65.6  ,169.9 ,4057 ,1566,"https://en.wikipedia.org/wiki/Irvine,_California",area codes,county,• land,• mayor,nan,• type,• water, ,33.6784,-117.7713,USA
73,Newark,New Jersey,282090,277140,+1.79,24.1  ,62.4 ,11691 ,4514,"https://en.wikipedia.org/wiki/Newark,_New_Jersey",area code,county,• land,• mayor,nan,• type,• water, , 40.724, -74.1726,USA
74,Toledo,Ohio,274975,287208,−4.26,80.7  ,209.0 ,3451 ,1332,"https://en.wikipedia.org/wiki/Toledo,_Ohio",area codes,county,• land,• mayor,• metro,nan,• water, , 41.664, -83.5819,USA
75,Durham,North Carolina,274291,228330,+20.13,109.8  ,284.4 ,2395 ,925,"https://en.wikipedia.org/wiki/Durham,_North_Carolina",area code,county,• land,• mayor,• metro,• type,• water, , 35.981, -78.9029,USA
76,Chula Vista,California,271651,243916,+11.37,49.6  ,128.5 ,5387 ,2080,"https://en.wikipedia.org/wiki/Chula_Vista,_California",area code,county,• land,nan,• metro,• type,• water, ,32.6277,-117.0152,USA
77,Fort Wayne,Indiana,267633,253691,+5.50,110.6  ,286.5 ,2391 ,923,"https://en.wikipedia.org/wiki/Fort_Wayne,_Indiana",area code,county,• land,• mayor,• metro,• type,• water, , 41.088, -85.1439,USA
78,Jersey City,New Jersey,265549,247597,+7.25,14.8  ,38.3 ,17848 ,6891,"https://en.wikipedia.org/wiki/Jersey_City,_New_Jersey",area code,county,• land,• mayor,nan,• type,• water, , 40.711, -74.0648,USA
79,St. Petersburg,Florida,265098,244769,+8.31,61.8  ,160.1 ,4223 ,1631,"https://en.wikipedia.org/wiki/St._Petersburg,_Florida",nan,nan,nan,nan,nan,nan,nan, , 27.762, -82.6441,USA
80,Laredo,Texas,261639,236091,+10.82,101.1  ,261.8 ,2544 ,982,"https://en.wikipedia.org/wiki/Laredo,_Texas",area code,county,• land,• mayor,• metro,• type,• water, , 27.560, -99.4892,USA
81,Madison,Wisconsin,258054,233209,+10.65,77.0  ,199.4 ,3280 ,1270,"https://en.wikipedia.org/wiki/Madison,_Wisconsin",nan,county,• land,• mayor,• metro,nan,• water, , 43.087, -89.4299,USA
82,Chandler,Arizona,257165,236123,+8.91,64.9  ,168.1 ,3813 ,1472,"https://en.wikipedia.org/wiki/Chandler,_Arizona",area code,county,• land,• mayor,nan,• type,• water, ,33.2829,-111.8549,USA
83,Buffalo,New York,256304,261310,−1.92,40.4  ,104.6 ,6359 ,2455,"https://en.wikipedia.org/wiki/Buffalo,_New_York",area code,county,• land,• mayor,• metro,nan,• water, , 42.892, -78.8597,USA
84,Lubbock,Texas,255885,229573,+11.46,124.6  ,322.7 ,2027 ,783,"https://en.wikipedia.org/wiki/Lubbock,_Texas",area code,county,• land,• mayor,• metro,• type,• water, ,33.5656,-101.8867,USA
85,Scottsdale,Arizona,255310,217385,+17.45,183.9  ,476.3 ,1341 ,518,"https://en.wikipedia.org/wiki/Scottsdale,_Arizona",nan,nan,nan,nan,nan,nan,nan, ,33.6843,-111.8611,USA
86,Reno,Nevada,250998,225221,+11.45,107.3  ,277.9 ,2286 ,883,"https://en.wikipedia.org/wiki/Reno,_Nevada",area code,county,• land,• mayor,• metro,• type,• water, ,39.5491,-119.8499,USA
87,Glendale,Arizona,250702,226721,+10.58,59.1  ,153.1 ,4161 ,1607,"https://en.wikipedia.org/wiki/Glendale,_Arizona",area code,county,• land,• mayor,nan,nan,• water, ,33.5331,-112.1899,USA
88,Gilbert,Arizona,248279,208453,+19.11,68.0  ,176.1 ,3487 ,1346,"https://en.wikipedia.org/wiki/Gilbert,_Arizona",area code,county,• land,• mayor,• metro,nan,• water, ,33.3103,-111.7431,USA
89,Winston–Salem,North Carolina,246328,229617,+7.28,132.5  ,343.2 ,1828 ,706,"https://en.wikipedia.org/wiki/Winston%E2%80%93Salem,_North_Carolina",nan,counties,• land,• mayor,nan,nan,• water, , 36.102, -80.2610,USA
90,North Las Vegas,Nevada,245949,216961,+13.36,98.0  ,253.8 ,2436 ,941,"https://en.wikipedia.org/wiki/North_Las_Vegas,_Nevada",nan,nan,nan,nan,nan,nan,nan, ,36.2857,-115.0939,USA
91,Norfolk,Virginia,244076,242803,+0.52,53.3  ,138.0 ,4599 ,1776,"https://en.wikipedia.org/wiki/Norfolk,_Virginia",area code,nan,• land,• mayor,• metro,nan,• water, , 36.923, -76.2446,USA
92,Chesapeake,Virginia,242634,222209,+9.19,338.5  ,876.7 ,703 ,271,"https://en.wikipedia.org/wiki/Chesapeake,_Virginia",area code,county,• land,• mayor,• metro,• type,• water, , 36.679, -76.3018,USA
93,Garland,Texas,242507,226876,+6.89,57.0  ,147.6 ,4122 ,1592,"https://en.wikipedia.org/wiki/Garland,_Texas",area code,county,• land,nan,nan,• type,• water, , 32.909, -96.6303,USA
94,Irving,Texas,242242,216290,+12.00,67.0  ,173.5 ,3557 ,1373,"https://en.wikipedia.org/wiki/Irving,_Texas",area code,county,• land,nan,• metro,• type,• water, , 32.857, -96.9700,USA
95,Hialeah,Florida,238942,224669,+6.35,21.5  ,55.7 ,10995 ,4245,"https://en.wikipedia.org/wiki/Hialeah,_Florida",area code,county,• land,• mayor,• metro,• type,• water, , 25.869, -80.3029,USA
96,Fremont,California,237807,214089,+11.08,77.5  ,200.7 ,3008 ,1161,"https://en.wikipedia.org/wiki/Fremont,_California",area code,county,• land,nan,nan,• type,• water, ,37.4945,-121.9412,USA
97,Boise,Idaho,228790,205671,+11.24,82.1  ,212.6 ,2718 ,1049,"https://en.wikipedia.org/wiki/Boise,_Idaho",area code,county,• land,• mayor,• metro,• type,• water, ,43.6002,-116.2317,USA
98,Richmond,Virginia,228783,204214,+12.03,59.8  ,154.9 ,3732 ,1441,"https://en.wikipedia.org/wiki/Richmond,_Virginia",area code,county,• land,• mayor,• metro,nan,• water, , 37.531, -77.4760,USA
99,Baton Rouge,Louisiana,221599,229493,−3.44,85.9  ,222.5 ,2651 ,1024,"https://en.wikipedia.org/wiki/Baton_Rouge,_Louisiana",area code,nan,• land,nan,• metro,nan,• water, , 30.442, -91.1309,USA
100,Spokane,Washington,219190,208916,+4.92,68.7  ,177.9 ,3144 ,1214,"https://en.wikipedia.org/wiki/Spokane,_Washington",area code,county,• land,• mayor,• metro,• type,• water, ,47.6669,-117.4333,USA
101,Des Moines,Iowa,216853,203433,+6.60,88.9  ,230.2 ,2424 ,936,"https://en.wikipedia.org/wiki/Des_Moines,_Iowa",area code,counties,• land,• mayor,• metro,• type,• water, , 41.572, -93.6102,USA
102,Tacoma,Washington,216279,198397,+9.01,49.7  ,128.7 ,4251 ,1641,"https://en.wikipedia.org/wiki/Tacoma,_Washington",area code,county,• land,• mayor,• metro,• type,• water, ,47.2522,-122.4598,USA
103,San Bernardino,California,215941,209924,+2.87,61.5  ,159.3 ,3516 ,1358,"https://en.wikipedia.org/wiki/San_Bernardino,_California",area code,county,• land,• mayor,• metro,• type,• water, ,34.1416,-117.2936,USA
104,Modesto,California,215030,201165,+6.89,43.0  ,111.4 ,4934 ,1905,"https://en.wikipedia.org/wiki/Modesto,_California",nan,nan,nan,nan,nan,nan,nan, ,37.6375,-121.0030,USA
105,Fontana,California,213739,196069,+9.01,43.0  ,111.4 ,4876 ,1883,"https://en.wikipedia.org/wiki/Fontana,_California",area codes,county,• land,nan,nan,• type,• water, ,34.1090,-117.4629,USA
106,Santa Clarita,California,210089,176320,+19.15,52.8  ,136.8 ,3446 ,1331,"https://en.wikipedia.org/wiki/Santa_Clarita,_California",area code,county,• land,• mayor,• metro,• type,• water, ,34.4030,-118.5042,USA
107,Birmingham,Alabama,209880,212237,−1.11,146.1  ,378.4 ,1452 ,561,"https://en.wikipedia.org/wiki/Birmingham,_Alabama",area code,counties,• land,• mayor,• metro,• type,• water, , 33.527, -86.7990,USA
108,Oxnard,California,209877,197899,+6.05,26.9  ,69.7 ,7729 ,2984,"https://en.wikipedia.org/wiki/Oxnard,_California",area code,county,• land,nan,nan,• type,• water, ,34.2023,-119.2046,USA
109,Fayetteville,North Carolina,209468,200564,+4.44,147.7  ,382.5 ,1386 ,535,"https://en.wikipedia.org/wiki/Fayetteville,_North_Carolina",area code,county,• land,• mayor,• metro,• type,• water, , 35.082, -78.9735,USA
110,Moreno Valley,California,209050,193365,+8.11,51.3  ,132.9 ,4006 ,1547,"https://en.wikipedia.org/wiki/Moreno_Valley,_California",area codes,county,• land,nan,nan,• type,• water, ,33.9233,-117.2057,USA
111,Rochester,New York,206284,210565,−2.03,35.8  ,92.7 ,5835 ,2253,"https://en.wikipedia.org/wiki/Rochester,_New_York",nan,nan,nan,nan,nan,nan,nan, , 43.169, -77.6169,USA
112,Glendale,California,201361,191719,+5.03,30.4  ,78.7 ,6606 ,2551,"https://en.wikipedia.org/wiki/Glendale,_California",area code,county,• land,nan,nan,• type,• water, ,34.1814,-118.2458,USA
113,Huntington Beach,California,200641,189992,+5.60,26.9  ,69.7 ,7459 ,2880,"https://en.wikipedia.org/wiki/Huntington_Beach,_California",area codes,county,• land,nan,nan,• type,• water, ,33.6906,-118.0093,USA
114,Salt Lake City,Utah,200591,186440,+7.59,111.2  ,288.0 ,1742 ,673,https://en.wikipedia.org/wiki/Salt_Lake_City,area codes,county,• land,• mayor,• metro,• type,• water, ,40.7769,-111.9310,USA
115,Grand Rapids,Michigan,200217,188040,+6.48,44.4  ,115.0 ,4424 ,1708,"https://en.wikipedia.org/wiki/Grand_Rapids,_Michigan",area code,county,• land,• mayor,• metro,• type,• water, , 42.961, -85.6556,USA
116,Amarillo,Texas,199924,190695,+4.84,101.4  ,262.6 ,1968 ,760,"https://en.wikipedia.org/wiki/Amarillo,_Texas",area code,counties,• land,• mayor,• metro,• type,• water, ,35.1999,-101.8302,USA
117,Yonkers,New York,199663,195976,+1.88,18.0  ,46.6 ,11156 ,4307,"https://en.wikipedia.org/wiki/Yonkers,_New_York",area code,county,• land,• mayor,nan,• type,• water, , 40.945, -73.8674,USA
118,Aurora,Illinois,199602,197899,+0.86,44.9  ,116.3 ,4479 ,1729,"https://en.wikipedia.org/wiki/Aurora,_Illinois",area codes,counties,• land,• mayor,nan,• type,• water, , 41.763, -88.2901,USA
119,Montgomery,Alabama,198218,205764,−3.67,159.8  ,413.9 ,1252 ,483,"https://en.wikipedia.org/wiki/Montgomery,_Alabama",area code,county,• land,• mayor,• metro,• type,• water, , 32.347, -86.2661,USA
120,Akron,Ohio,198006,199110,−0.55,62.0  ,160.6 ,3188 ,1231,"https://en.wikipedia.org/wiki/Akron,_Ohio",area code,county,• land,• mayor,• metro,• type,• water, , 41.080, -81.5214,USA
121,Little Rock,Arkansas,197881,193524,+2.25,118.7  ,307.4 ,1673 ,646,"https://en.wikipedia.org/wiki/Little_Rock,_Arkansas",area code,county,• land,• mayor,• metro,• type,• water, , 34.725, -92.3586,USA
122,Huntsville,Alabama,197318,180105,+9.56,213.4  ,552.7 ,905 ,349,"https://en.wikipedia.org/wiki/Huntsville,_Alabama",area codes,counties,• land,• mayor,• metro,• type,• water, , 34.699, -86.6730,USA
123,Augusta,Georgia,196939,195844,+0.56,302.5  ,783.5 ,652 ,252,"https://en.wikipedia.org/wiki/Augusta,_Georgia",area code,county,• land,• mayor,• metro,nan,• water, , 33.365, -82.0734,USA
124,Port St. Lucie,Florida,195248,164603,+18.62,118.9  ,307.9 ,1557 ,601,"https://en.wikipedia.org/wiki/Port_St._Lucie,_Florida",nan,county,• land,• mayor,• metro,nan,• water, , 27.280, -80.3883,USA
125,Grand Prairie,Texas,194614,175396,+10.96,72.3  ,187.3 ,2637 ,1018,"https://en.wikipedia.org/wiki/Grand_Prairie,_Texas",area code,counties,• land,nan,• metro,• type,• water, , 32.686, -97.0211,USA
126,Columbus,Georgia,194160,189885,+2.25,216.4  ,560.5 ,913 ,353,"https://en.wikipedia.org/wiki/Columbus,_Georgia",area code,county,• land,• mayor,nan,nan,• water, , 32.510, -84.8749,USA
127,Tallahassee,Florida,193551,181376,+6.71,100.4  ,260.0 ,1901 ,734,"https://en.wikipedia.org/wiki/Tallahassee,_Florida",area code,county,• land,• mayor,• metro,• type,• water, , 30.455, -84.2534,USA
128,Overland Park,Kansas,192536,173372,+11.05,75.1  ,194.5 ,2516 ,971,"https://en.wikipedia.org/wiki/Overland_Park,_Kansas",nan,county,• land,• mayor,nan,nan,• water, , 38.889, -94.6906,USA
129,Tempe,Arizona,192364,161719,+18.95,40.0  ,103.6 ,4562 ,1761,"https://en.wikipedia.org/wiki/Tempe,_Arizona",area codes,county,• land,• mayor,• metro,nan,• water, ,33.3884,-111.9318,USA
130,McKinney,Texas,191645,131117,+46.16,63.0  ,163.2 ,2735 ,1056,"https://en.wikipedia.org/wiki/McKinney,_Texas",area code,county,• land,• mayor,nan,• type,• water, , 33.198, -96.6680,USA
131,Mobile,Alabama,189572,195111,−2.84,139.4  ,361.0 ,1384 ,534,"https://en.wikipedia.org/wiki/Mobile,_Alabama",area code,county,• land,• mayor,• metro,• type,• water, , 30.668, -88.1002,USA
132,Cape Coral,Florida,189343,154305,+22.71,105.6  ,273.5 ,1703 ,658,"https://en.wikipedia.org/wiki/Cape_Coral,_Florida",area code,county,• land,• mayor,• metro,• type,• water, , 26.643, -81.9974,USA
133,Shreveport,Louisiana,188987,199311,−5.18,107.1  ,277.4 ,1820 ,700,"https://en.wikipedia.org/wiki/Shreveport,_Louisiana",nan,nan,• land,• mayor,• metro,nan,• water, , 32.466, -93.7922,USA
134,Frisco,Texas,188170,116989,+60.84,67.7  ,175.3 ,2417 ,933,"https://en.wikipedia.org/wiki/Frisco,_Texas",area code,counties,• land,nan,nan,• type,• water, , 33.155, -96.8226,USA
135,Knoxville,Tennessee,187500,178874,+4.82,98.5  ,255.1 ,1891 ,730,"https://en.wikipedia.org/wiki/Knoxville,_Tennessee",area code,county,• land,• mayor,• metro,• type,• water, , 35.970, -83.9493,USA
136,Worcester,Massachusetts,185877,181045,+2.67,37.4  ,96.9 ,4933 ,1905,"https://en.wikipedia.org/wiki/Worcester,_Massachusetts",area code,county,• land,• mayor,• metro,• type,• water, , 42.269, -71.8078,USA
137,Brownsville,Texas,183392,175023,+4.78,132.5  ,343.2 ,1387 ,536,"https://en.wikipedia.org/wiki/Brownsville,_Texas",area code,county,• land,• mayor,• metro,• type,• water, , 25.999, -97.4550,USA
138,Vancouver,Washington,183012,161791,+13.12,46.9  ,121.5 ,3728 ,1439,"https://en.wikipedia.org/wiki/Vancouver,_Washington",nan,county,• land,• mayor,• metro,• type,• water, ,45.6349,-122.5957,USA
139,Fort Lauderdale,Florida,182595,165521,+10.32,34.6  ,89.6 ,5166 ,1995,"https://en.wikipedia.org/wiki/Fort_Lauderdale,_Florida",nan,nan,nan,nan,nan,nan,nan, , 26.141, -80.1467,USA
140,Sioux Falls,South Dakota,181883,153888,+18.19,75.4  ,195.3 ,2312 ,893,"https://en.wikipedia.org/wiki/Sioux_Falls,_South_Dakota",nan,nan,nan,nan,nan,nan,nan, , 43.538, -96.7320,USA
141,Ontario,California,181107,163924,+10.48,49.9  ,129.2 ,3471 ,1340,"https://en.wikipedia.org/wiki/Ontario,_California",nan,nan,nan,nan,nan,nan,nan, ,34.0394,-117.6042,USA
142,Chattanooga,Tennessee,180557,167674,+7.68,143.1  ,370.6 ,1241 ,479,"https://en.wikipedia.org/wiki/Chattanooga,_Tennessee",area code,county,• land,• mayor,• metro,• type,• water, , 35.066, -85.2484,USA
143,Providence,Rhode Island,179335,178042,+0.73,18.4  ,47.7 ,9740 ,3760,"https://en.wikipedia.org/wiki/Providence,_Rhode_Island",area code,county,• land,• mayor,• metro,• type,• water, , 41.823, -71.4188,USA
144,Newport News,Virginia,178626,180719,−1.16,69.1  ,179.0 ,2631 ,1016,"https://en.wikipedia.org/wiki/Newport_News,_Virginia",area code,nan,• land,• mayor,• metro,nan,• water, , 37.076, -76.5220,USA
145,Rancho Cucamonga,California,177751,165269,+7.55,40.0  ,103.6 ,4413 ,1704,"https://en.wikipedia.org/wiki/Rancho_Cucamonga,_California",area code,county,• land,nan,nan,• type,• water, ,34.1233,-117.5642,USA
146,Santa Rosa,California,177586,167815,+5.82,41.3  ,107.0 ,4241 ,1637,"https://en.wikipedia.org/wiki/Santa_Rosa,_California",area code,county,• land,• mayor,nan,• type,• water, ,38.4468,-122.7061,USA
147,Oceanside,California,176080,167086,+5.38,41.3  ,107.0 ,4249 ,1641,"https://en.wikipedia.org/wiki/Oceanside,_California",area codes,county,• land,nan,nan,• type,• water, ,33.2245,-117.3062,USA
148,Salem,Oregon,173442,154637,+12.16,48.6  ,125.9 ,3445 ,1330,"https://en.wikipedia.org/wiki/Salem,_Oregon",area codes,counties,• land,• mayor,• metro,• type,• water, ,44.9237,-123.0232,USA
149,Elk Grove,California,172886,153015,+12.99,42.2  ,109.3 ,4022 ,1553,"https://en.wikipedia.org/wiki/Elk_Grove,_California",area code,county,• land,• mayor,nan,• type,• water, ,38.4146,-121.3850,USA
150,Garden Grove,California,172646,170883,+1.03,18.0  ,46.6 ,9714 ,3751,"https://en.wikipedia.org/wiki/Garden_Grove,_California",area codes,county,• land,• mayor,nan,• type,• water, ,33.7788,-117.9605,USA
151,Pembroke Pines,Florida,172374,154019,+11.92,33.0  ,85.5 ,5109 ,1973,"https://en.wikipedia.org/wiki/Pembroke_Pines,_Florida",area code,county,• land,• mayor,nan,• type,• water, , 26.021, -80.3404,USA
152,Peoria,Arizona,172259,154065,+11.81,175.7  ,455.1 ,934 ,361,"https://en.wikipedia.org/wiki/Peoria,_Arizona",nan,nan,nan,nan,nan,nan,nan, ,33.7862,-112.3080,USA
153,Eugene,Oregon,171245,156185,+9.64,44.1  ,114.2 ,3777 ,1458,"https://en.wikipedia.org/wiki/Eugene,_Oregon",area code,county,• land,• mayor,nan,• type,• water, ,44.0567,-123.1162,USA
154,Corona,California,168819,152374,+10.79,39.5  ,102.3 ,4222 ,1630,"https://en.wikipedia.org/wiki/Corona,_California",area code,county,• land,• mayor,• metro,• type,• water, ,33.8620,-117.5655,USA
155,Cary,North Carolina,168160,135234,+24.35,56.5  ,146.3 ,2873 ,1109,"https://en.wikipedia.org/wiki/Cary,_North_Carolina",area codes,counties,• land,• mayor,nan,nan,• water, , 35.780, -78.8133,USA
156,Springfield,Missouri,168122,159498,+5.41,82.3  ,213.2 ,2033 ,785,"https://en.wikipedia.org/wiki/Springfield,_Missouri",area code,counties,• land,• mayor,• metro,• type,• water, , 37.194, -93.2913,USA
157,Fort Collins,Colorado,167830,143986,+16.56,55.8  ,144.5 ,2943 ,1136,"https://en.wikipedia.org/wiki/Fort_Collins,_Colorado",area code,county,• land,• mayor,nan,• type,• water, ,40.5482,-105.0648,USA
158,Jackson,Mississippi,164422,173514,−5.24,111.0  ,287.5 ,1524 ,588,"https://en.wikipedia.org/wiki/Jackson,_Mississippi",area codes,counties,• land,• mayor,• metro,• type,• water, , 32.315, -90.2128,USA
159,Alexandria,Virginia,160530,139966,+14.69,15.0  ,38.8 ,10387 ,4010,"https://en.wikipedia.org/wiki/Alexandria,_Virginia",area code,county,• land,• mayor,nan,• type,• water, , 38.820, -77.0841,USA
160,Hayward,California,159620,144186,+10.70,45.5  ,117.8 ,3493 ,1349,"https://en.wikipedia.org/wiki/Hayward,_California",area code,county,• land,• mayor,• metro,• type,• water, ,37.6287,-122.1024,USA
161,Lancaster,California,159053,156633,+1.55,94.3  ,244.2 ,1698 ,656,"https://en.wikipedia.org/wiki/Lancaster,_California",area code,county,• land,• mayor,nan,• type,• water, ,34.6936,-118.1753,USA
162,Lakewood,Colorado,156798,142980,+9.66,42.9  ,111.1 ,3599 ,1390,"https://en.wikipedia.org/wiki/Lakewood,_Colorado",area code,county,• land,• mayor,• metro,• type,• water, ,39.6989,-105.1176,USA
163,Clarksville,Tennessee,156794,132929,+17.95,98.3  ,254.6 ,1529 ,590,"https://en.wikipedia.org/wiki/Clarksville,_Tennessee",area code,county,• land,• mayor,nan,nan,• water, , 36.566, -87.3452,USA
164,Palmdale,California,156667,152750,+2.56,106.0  ,274.5 ,1484 ,573,"https://en.wikipedia.org/wiki/Palmdale,_California",area code,county,• land,nan,• metro,• type,• water, ,34.5910,-118.1054,USA
165,Salinas,California,156259,150441,+3.87,23.6  ,61.1 ,6662 ,2572,"https://en.wikipedia.org/wiki/Salinas,_California",area code,county,• land,• mayor,nan,• type,• water, ,36.6902,-121.6337,USA
166,Springfield,Massachusetts,155032,153060,+1.29,31.9  ,82.6 ,4830 ,1860,"https://en.wikipedia.org/wiki/Springfield,_Massachusetts",area code,county,• land,• mayor,• metro,• type,• water, , 42.115, -72.5400,USA
167,Hollywood,Florida,154823,140768,+9.98,27.3  ,70.7 ,5568 ,2150,"https://en.wikipedia.org/wiki/Hollywood,_Florida",nan,nan,nan,nan,nan,nan,nan, , 26.031, -80.1646,USA
168,Pasadena,Texas,153219,149043,+2.80,43.5  ,112.7 ,3525 ,1361,"https://en.wikipedia.org/wiki/Pasadena,_Texas",area code,county,• land,• mayor,• metro,• type,• water, , 29.658, -95.1506,USA
169,Sunnyvale,California,153185,140081,+9.35,22.0  ,57.0 ,6944 ,2681,"https://en.wikipedia.org/wiki/Sunnyvale,_California",area codes,county,• land,• mayor,nan,• type,• water, ,37.3858,-122.0263,USA
170,Macon,Georgia,153095,91351,+67.59,249.3  ,645.7 ,612 ,236,"https://en.wikipedia.org/wiki/Macon,_Georgia",area code,county,• land,• mayor,• metro,nan,• water, , 32.808, -83.6942,USA
171,Kansas City,Kansas,152958,145786,+4.92,124.8  ,323.2 ,1216 ,470,"https://en.wikipedia.org/wiki/Kansas_City,_Kansas",area code,county,• land,• mayor,nan,nan,• water, , 39.122, -94.7418,USA
172,Pomona,California,152361,149058,+2.22,23.0  ,59.6 ,6630 ,2560,"https://en.wikipedia.org/wiki/Pomona,_California",area code,county,• land,nan,nan,• type,• water, ,34.0585,-117.7611,USA
173,Escondido,California,152213,143911,+5.77,37.1  ,96.1 ,4087 ,1578,"https://en.wikipedia.org/wiki/Escondido,_California",area codes,county,• land,• mayor,nan,• type,• water, ,33.1331,-117.0740,USA
174,Killeen,Texas,149103,127921,+16.56,53.5  ,138.6 ,2680 ,1030,"https://en.wikipedia.org/wiki/Killeen,_Texas",area code,county,• land,nan,nan,• type,• water, , 31.077, -97.7320,USA
175,Naperville,Illinois,148304,141853,+4.55,38.7  ,100.2 ,3802 ,1468,"https://en.wikipedia.org/wiki/Naperville,_Illinois",nan,nan,nan,nan,nan,nan,nan, , 41.749, -88.1620,USA
176,Joliet,Illinois,148099,147433,+0.45,64.4  ,166.8 ,2302 ,889,"https://en.wikipedia.org/wiki/Joliet,_Illinois",area codes,counties,• land,• mayor,nan,• type,• water, , 41.517, -88.1488,USA
177,Bellevue,Washington,147599,122363,+20.62,33.5  ,86.8 ,4221 ,1630,"https://en.wikipedia.org/wiki/Bellevue,_Washington",area code,county,• land,• mayor,• metro,nan,• water, ,47.5979,-122.1565,USA
178,Rockford,Illinois,146526,152871,−4.15,63.5  ,164.5 ,2325 ,898,"https://en.wikipedia.org/wiki/Rockford,_Illinois",area code,county,• land,• mayor,• metro,nan,• water, , 42.258, -89.0646,USA
179,Savannah,Georgia,145862,136286,+7.03,103.6  ,268.3 ,1417 ,547,"https://en.wikipedia.org/wiki/Savannah,_Georgia",area code,county,• land,• mayor,• metro,nan,• water, , 32.002, -81.1536,USA
180,Paterson,New Jersey,145627,146199,−0.39,8.4  ,21.8 ,17500 ,6800,"https://en.wikipedia.org/wiki/Paterson,_New_Jersey",area code,county,• land,• mayor,nan,• type,• water, , 40.914, -74.1628,USA
181,Torrance,California,145182,145438,−0.18,20.5  ,53.1 ,7180 ,2770,"https://en.wikipedia.org/wiki/Torrance,_California",area codes,county,• land,nan,nan,• type,• water, ,33.8350,-118.3414,USA
182,Bridgeport,Connecticut,144900,144229,+0.47,16.1  ,41.7 ,9064 ,3500,"https://en.wikipedia.org/wiki/Bridgeport,_Connecticut",area code,county,• land,• mayor,• metro,• type,• water, , 41.187, -73.1958,USA
183,McAllen,Texas,143433,129877,+10.44,58.4  ,151.3 ,2435 ,940,"https://en.wikipedia.org/wiki/McAllen,_Texas",area code,county,• land,nan,• metro,• type,• water, , 26.232, -98.2464,USA
184,Mesquite,Texas,142816,139824,+2.14,47.2  ,122.2 ,3045 ,1176,"https://en.wikipedia.org/wiki/Mesquite,_Texas",area code,counties,• land,nan,nan,• type,• water, , 32.762, -96.5888,USA
185,Syracuse,New York,142749,145170,−1.67,25.0  ,64.7 ,5735 ,2214,"https://en.wikipedia.org/wiki/Syracuse,_New_York",nan,county,• land,• mayor,• metro,• type,• water, , 43.041, -76.1436,USA
186,Midland,Texas,142344,111147,+28.07,74.4  ,192.7 ,1809 ,698,"https://en.wikipedia.org/wiki/Midland,_Texas",area code,counties,• land,• mayor,• metro,• type,• water, ,32.0246,-102.1135,USA
187,Pasadena,California,141371,137122,+3.10,23.0  ,59.6 ,6176 ,2385,"https://en.wikipedia.org/wiki/Pasadena,_California",area codes,county,• land,• mayor,nan,• type,• water, ,34.1606,-118.1396,USA
188,Murfreesboro,Tennessee,141344,108755,+29.97,55.9  ,144.8 ,2360 ,910,"https://en.wikipedia.org/wiki/Murfreesboro,_Tennessee",area code,county,• land,• mayor,nan,• type,• water, , 35.852, -86.4160,USA
189,Miramar,Florida,140823,122041,+15.39,29.4  ,76.1 ,4709 ,1818,"https://en.wikipedia.org/wiki/Miramar,_Florida",area code,county,• land,• mayor,• metro,• type,• water, , 25.977, -80.3358,USA
190,Dayton,Ohio,140640,141527,−0.63,55.7  ,144.3 ,2522 ,974,"https://en.wikipedia.org/wiki/Dayton,_Ohio",area code,county,• land,• mayor,• metro,nan,• water, , 39.777, -84.1996,USA
191,Fullerton,California,139640,135161,+3.31,22.4  ,58.0 ,6282 ,2425,"https://en.wikipedia.org/wiki/Fullerton,_California",area codes,county,• land,nan,nan,• type,• water, ,33.8857,-117.9280,USA
192,Olathe,Kansas,139605,125872,+10.91,60.9  ,157.7 ,2225 ,859,"https://en.wikipedia.org/wiki/Olathe,_Kansas",area code,county,• land,• mayor,• metro,• type,• water, , 38.884, -94.8195,USA
193,Orange,California,139484,136416,+2.25,25.4  ,65.8 ,5532 ,2136,"https://en.wikipedia.org/wiki/Orange,_California",area codes,county,• land,nan,nan,• type,• water, ,33.7870,-117.8613,USA
194,Thornton,Colorado,139436,118772,+17.40,35.7  ,92.5 ,3829 ,1478,"https://en.wikipedia.org/wiki/Thornton,_Colorado",area code,counties,• land,• mayor,nan,• type,• water, ,39.9194,-104.9428,USA
195,Roseville,California,139117,118788,+17.11,43.0  ,111.4 ,3085 ,1191,"https://en.wikipedia.org/wiki/Roseville,_California",area code,county,• land,• mayor,nan,• type,• water, ,38.7690,-121.3189,USA
196,Denton,Texas,138541,113383,+22.19,93.4  ,241.9 ,1433 ,553,"https://en.wikipedia.org/wiki/Denton,_Texas",area code,county,• land,nan,nan,• type,• water, , 33.216, -97.1414,USA
197,Waco,Texas,138183,124805,+10.72,89.0  ,230.5 ,1510 ,580,"https://en.wikipedia.org/wiki/Waco,_Texas",area code,county,• land,nan,• metro,• type,• water, , 31.560, -97.1860,USA
198,Surprise,Arizona,138161,117517,+17.57,107.9  ,279.5 ,1230 ,470,"https://en.wikipedia.org/wiki/Surprise,_Arizona",area code,county,• land,• mayor,• metro,nan,• water, ,33.6706,-112.4527,USA
199,Carrollton,Texas,136879,119097,+14.93,36.3  ,94.0 ,3674 ,1419,"https://en.wikipedia.org/wiki/Carrollton,_Texas",area code,counties,• land,• mayor,• metro,• type,• water, , 32.988, -96.8998,USA
200,West Valley City,Utah,136401,129480,+5.35,35.5  ,91.9 ,3847 ,1485,"https://en.wikipedia.org/wiki/West_Valley_City,_Utah",nan,nan,nan,nan,nan,nan,nan, ,40.6885,-112.0118,USA
201,Charleston,South Carolina,136208,120083,+13.43,109.0  ,282.3 ,1233 ,476,"https://en.wikipedia.org/wiki/Charleston,_South_Carolina",area code,counties,• land,• mayor,nan,• type,• water, , 32.817, -79.9590,USA
202,Warren,Michigan,134587,134056,+0.40,34.4  ,89.1 ,3928 ,1517,"https://en.wikipedia.org/wiki/Warren,_Michigan",area code,county,• land,• mayor,nan,• type,• water, , 42.492, -83.0250,USA
203,Hampton,Virginia,134313,137436,−2.27,51.5  ,133.4 ,2629 ,1015,"https://en.wikipedia.org/wiki/Hampton,_Virginia",nan,county,• land,• mayor,• metro,nan,• water, , 37.048, -76.2971,USA
204,Gainesville,Florida,133857,124354,+7.64,62.3  ,161.4 ,2112 ,815,"https://en.wikipedia.org/wiki/Gainesville,_Florida",area code,county,• land,• mayor,• metro,• type,• water, , 29.678, -82.3461,USA
205,Visalia,California,133800,124442,+7.52,37.5  ,97.1 ,3495 ,1349,"https://en.wikipedia.org/wiki/Visalia,_California",area code,county,• land,nan,nan,• type,• water, ,36.3273,-119.3289,USA
206,Coral Springs,Florida,133507,121096,+10.25,23.8  ,61.6 ,5465 ,2110,"https://en.wikipedia.org/wiki/Coral_Springs,_Florida",area code,county,• land,nan,nan,• type,• water, , 26.270, -80.2593,USA
207,Columbia,South Carolina,133451,129272,+3.23,133.5  ,345.8 ,1006 ,388,"https://en.wikipedia.org/wiki/Columbia,_South_Carolina",area code,county,• land,• mayor,nan,nan,• water, , 34.029, -80.8980,USA
208,Cedar Rapids,Iowa,133174,126326,+5.42,70.8  ,183.4 ,1852 ,715,"https://en.wikipedia.org/wiki/Cedar_Rapids,_Iowa",area code,county,• land,• mayor,• metro,• type,• water, , 41.967, -91.6778,USA
209,Sterling Heights,Michigan,132964,129699,+2.52,36.5  ,94.5 ,3628 ,1401,"https://en.wikipedia.org/wiki/Sterling_Heights,_Michigan",area code,county,• land,• mayor,nan,• type,• water, , 42.581, -83.0303,USA
210,New Haven,Connecticut,130418,129779,+0.49,18.7  ,48.4 ,6948 ,2683,"https://en.wikipedia.org/wiki/New_Haven,_Connecticut",area code,county,• land,• mayor,• metro,• type,• water, , 41.310, -72.9250,USA
211,Stamford,Connecticut,129775,122643,+5.82,37.6  ,97.4 ,3434 ,1326,"https://en.wikipedia.org/wiki/Stamford,_Connecticut",area code,county,• land,• mayor,• metro,• type,• water, , 41.079, -73.5460,USA
212,Concord,California,129688,122067,+6.24,30.5  ,79.0 ,4221 ,1630,"https://en.wikipedia.org/wiki/Concord,_California",area code,county,• land,• mayor,nan,• type,• water, ,37.9722,-122.0016,USA
213,Kent,Washington,129618,92411,+40.26,33.7  ,87.3 ,3784 ,1461,"https://en.wikipedia.org/wiki/Kent,_Washington",area code,county,• land,• mayor,nan,• type,• water, ,47.3880,-122.2127,USA
214,Santa Clara,California,129488,116468,+11.18,18.4  ,47.7 ,6845 ,2643,"https://en.wikipedia.org/wiki/Santa_Clara,_California",area codes,county,• land,nan,nan,• type,• water, ,37.3646,-121.9679,USA
215,Elizabeth,New Jersey,128885,124969,+3.13,12.3  ,31.9 ,10459 ,4038,"https://en.wikipedia.org/wiki/Elizabeth,_New_Jersey",area code,county,• land,• mayor,nan,• type,• water, , 40.666, -74.1935,USA
216,Round Rock,Texas,128739,99887,+28.88,35.6  ,92.2 ,3396 ,1311,"https://en.wikipedia.org/wiki/Round_Rock,_Texas",area code,counties,• land,nan,nan,• type,• water, , 30.525, -97.6660,USA
217,Thousand Oaks,California,127690,126683,+0.79,55.2  ,143.0 ,2335 ,902,"https://en.wikipedia.org/wiki/Thousand_Oaks,_California",area code,county,• land,• mayor,nan,• type,• water, ,34.1933,-118.8742,USA
218,Lafayette,Louisiana,126143,120623,+4.58,53.8  ,139.3 ,2372 ,916,"https://en.wikipedia.org/wiki/Lafayette,_Louisiana",nan,nan,nan,nan,nan,nan,nan, , 30.207, -92.0285,USA
219,Athens,Georgia,125964,115452,+9.11,116.4  ,301.5 ,1060 ,410,"https://en.wikipedia.org/wiki/Athens,_Georgia",area code,county,• land,• mayor,• metro,nan,• water, , 33.949, -83.3701,USA
220,Topeka,Kansas,125904,127473,−1.23,61.5  ,159.3 ,2062 ,796,"https://en.wikipedia.org/wiki/Topeka,_Kansas",area code,county,• land,• mayor,• metro,• type,• water, , 39.034, -95.6962,USA
221,Simi Valley,California,125851,124237,+1.30,41.5  ,107.5 ,3044 ,1175,"https://en.wikipedia.org/wiki/Simi_Valley,_California",area code,county,• land,nan,nan,• type,• water, ,34.2669,-118.7485,USA
222,Fargo,North Dakota,124844,105549,+18.28,49.3  ,127.7 ,2450 ,950,"https://en.wikipedia.org/wiki/Fargo,_North_Dakota",area code,county,• land,• mayor,• metro,nan,• water, , 46.865, -96.8290,USA
223,Norman,Oklahoma,123471,110925,+11.31,178.8  ,463.1 ,683 ,264,"https://en.wikipedia.org/wiki/Norman,_Oklahoma",area code,county,• land,• mayor,• metro,• type,• water, , 35.240, -97.3453,USA
224,Columbia,Missouri,123180,108500,+13.53,65.0  ,168.3 ,1856 ,717,"https://en.wikipedia.org/wiki/Columbia,_Missouri",area code,county,• land,• mayor,nan,• type,• water, ,951561;,92.328638,USA
225,Abilene,Texas,122999,117063,+5.07,106.7  ,276.4 ,1146 ,442,"https://en.wikipedia.org/wiki/Abilene,_Texas",area code,counties,• land,nan,• metro,• type,• water, , 32.454, -99.7381,USA
226,Wilmington,North Carolina,122607,106476,+15.15,51.6  ,133.6 ,2278 ,880,"https://en.wikipedia.org/wiki/Wilmington,_North_Carolina",nan,nan,nan,nan,nan,nan,nan, , 34.209, -77.8858,USA
227,Hartford,Connecticut,122587,124775,−1.75,17.4  ,45.1 ,7083 ,2735,"https://en.wikipedia.org/wiki/Hartford,_Connecticut",area code,county,• land,• mayor,• metro,• type,• water, , 41.765, -72.6816,USA
228,Victorville,California,122312,115903,+5.53,73.3  ,189.8 ,1668 ,644,"https://en.wikipedia.org/wiki/Victorville,_California",area codes,county,• land,• mayor,nan,nan,• water, ,34.5277,-117.3536,USA
229,Pearland,Texas,122149,91252,+33.86,46.3  ,119.9 ,2453 ,947,"https://en.wikipedia.org/wiki/Pearland,_Texas",nan,nan,nan,nan,nan,nan,nan, , 29.555, -95.3231,USA
230,Vallejo,California,121913,115942,+5.15,30.7  ,79.5 ,3951 ,1525,"https://en.wikipedia.org/wiki/Vallejo,_California",area code,county,• land,• mayor,nan,• type,• water, ,38.1079,-122.2640,USA
231,Ann Arbor,Michigan,121890,113934,+6.98,28.1  ,72.8 ,4298 ,1659,"https://en.wikipedia.org/wiki/Ann_Arbor,_Michigan",area code,county,• land,• mayor,• metro,• type,• water, , 42.276, -83.7309,USA
232,Berkeley,California,121643,112580,+8.05,10.5  ,27.2 ,11547 ,4458,"https://en.wikipedia.org/wiki/Berkeley,_California",area code,county,• land,• mayor,nan,• type,• water, ,37.8670,-122.2991,USA
233,Allentown,Pennsylvania,121433,118032,+2.88,17.5  ,45.3 ,6882 ,2657,"https://en.wikipedia.org/wiki/Allentown,_Pennsylvania",area codes,county,• land,• mayor,• metro,• type,• water, , 40.593, -75.4784,USA
234,Richardson,Texas,120981,99223,+21.93,28.6  ,74.1 ,3963 ,1530,"https://en.wikipedia.org/wiki/Richardson,_Texas",area code,counties,• land,nan,nan,• type,• water, , 32.972, -96.7081,USA
235,Odessa,Texas,120568,99940,+20.64,45.2  ,117.1 ,2608 ,1007,"https://en.wikipedia.org/wiki/Odessa,_Texas",area code,counties,• land,nan,nan,• type,• water, ,31.8838,-102.3411,USA
236,Arvada,Colorado,120492,106433,+13.21,38.6  ,100.0 ,3043 ,1175,"https://en.wikipedia.org/wiki/Arvada,_Colorado",area code,counties,• land,• mayor,nan,• type,• water, ,39.8337,-105.1503,USA
237,Cambridge,Massachusetts,118977,105162,+13.14,6.4  ,16.6 ,17289 ,6675,"https://en.wikipedia.org/wiki/Cambridge,_Massachusetts",area code,county,• land,• mayor,nan,• type,• water, , 42.376, -71.1187,USA
238,Sugar Land,Texas,118600,78817,+50.48,34.0  ,88.1 ,3488 ,1347,"https://en.wikipedia.org/wiki/Sugar_Land,_Texas",nan,nan,nan,nan,nan,nan,nan, , 29.599, -95.6142,USA
239,Beaumont,Texas,118428,118296,+0.11,82.1  ,212.6 ,1441 ,556,"https://en.wikipedia.org/wiki/Beaumont,_Texas",area code,county,• land,nan,• metro,• type,• water, , 30.084, -94.1453,USA
240,Lansing,Michigan,118427,114297,+3.61,39.1  ,101.3 ,2967 ,1146,"https://en.wikipedia.org/wiki/Lansing,_Michigan",area code,counties,• land,• mayor,• metro,• type,• water, , 42.714, -84.5593,USA
241,Evansville,Indiana,117963,117429,+0.45,47.3  ,122.5 ,2526 ,975,"https://en.wikipedia.org/wiki/Evansville,_Indiana",area code,county,• land,• mayor,• metro,nan,• water, , 37.987, -87.5347,USA
242,Rochester,Minnesota,116961,106769,+9.55,54.6  ,141.4 ,2088 ,806,"https://en.wikipedia.org/wiki/Rochester,_Minnesota",area code,county,• land,• mayor,• metro,nan,• water, , 44.015, -92.4772,USA
243,Independence,Missouri,116925,116830,+0.08,77.8  ,201.5 ,1504 ,581,"https://en.wikipedia.org/wiki/Independence,_Missouri",area code,counties,• land,• mayor,nan,nan,• water, , 39.085, -94.3521,USA
244,Fairfield,California,116884,105321,+10.98,40.9  ,105.9 ,2806 ,1083,"https://en.wikipedia.org/wiki/Fairfield,_California",area code,county,• land,• mayor,nan,• type,• water, ,38.2593,-122.0321,USA
245,Provo,Utah,116702,112488,+3.75,41.7  ,108.0 ,2803 ,1082,"https://en.wikipedia.org/wiki/Provo,_Utah",area codes,county,• land,• mayor,• metro,• type,• water, ,40.2453,-111.6448,USA
246,Clearwater,Florida,116478,107685,+8.17,25.9  ,67.1 ,4415 ,1705,"https://en.wikipedia.org/wiki/Clearwater,_Florida",nan,nan,nan,nan,nan,nan,nan, , 27.978, -82.7666,USA
247,College Station,Texas,116218,93857,+23.82,51.0  ,132.1 ,2199 ,849,"https://en.wikipedia.org/wiki/College_Station,_Texas",area code,county,• land,• mayor,• metro,• type,• water, , 30.585, -96.2964,USA
248,West Jordan,Utah,116046,103712,+11.89,32.3  ,83.7 ,3520 ,1360,"https://en.wikipedia.org/wiki/West_Jordan,_Utah",area code,county,• land,nan,nan,nan,• water, ,40.6024,-112.0008,USA
249,Carlsbad,California,115877,105328,+10.02,37.7  ,97.6 ,3023 ,1167,"https://en.wikipedia.org/wiki/Carlsbad,_California",area codes,county,• land,• mayor,nan,• type,• water, ,33.1239,-117.2828,USA
250,El Monte,California,115586,113475,+1.86,9.6  ,24.9 ,12063 ,4658,"https://en.wikipedia.org/wiki/El_Monte,_California",area code,county,• land,• mayor,nan,• type,• water, ,34.0746,-118.0291,USA
251,Murrieta,California,114985,103466,+11.13,33.6  ,87.0 ,3324 ,1283,"https://en.wikipedia.org/wiki/Murrieta,_California",area code,county,• land,nan,nan,• type,• water, ,33.5721,-117.1904,USA
252,Temecula,California,114742,100097,+14.63,37.3  ,96.6 ,3031 ,1170,"https://en.wikipedia.org/wiki/Temecula,_California",area code,county,• land,nan,nan,nan,• water, ,33.4931,-117.1317,USA
253,Springfield,Illinois,114694,116250,−1.34,60.1  ,155.7 ,1925 ,743,"https://en.wikipedia.org/wiki/Springfield,_Illinois",area code,county,• land,• mayor,• metro,nan,• water, , 39.791, -89.6446,USA
254,Palm Bay,Florida,114194,103190,+10.66,65.7  ,170.2 ,1676 ,647,"https://en.wikipedia.org/wiki/Palm_Bay,_Florida",area code,county,• land,• mayor,• metro,• type,• water, , 27.985, -80.6626,USA
255,Costa Mesa,California,113615,109960,+3.32,15.7  ,40.7 ,7186 ,2775,"https://en.wikipedia.org/wiki/Costa_Mesa,_California",nan,nan,nan,nan,nan,nan,nan, ,33.6659,-117.9123,USA
256,Westminster,Colorado,113479,106114,+6.94,31.7  ,82.1 ,3592 ,1387,"https://en.wikipedia.org/wiki/Westminster,_Colorado",area code,counties,• land,• mayor,nan,• type,• water, ,39.8822,-105.0644,USA
257,North Charleston,South Carolina,113237,97471,+16.18,73.7  ,190.9 ,1483 ,573,"https://en.wikipedia.org/wiki/North_Charleston,_South_Carolina",nan,counties,• land,• mayor,• metro,• type,• water, , 32.917, -80.0650,USA
258,Miami Gardens,Florida,113069,107167,+5.51,18.2  ,47.1 ,6212 ,2398,"https://en.wikipedia.org/wiki/Miami_Gardens,_Florida",area code,county,• land,• mayor,• metro,• type,• water, , 25.948, -80.2436,USA
259,Manchester,New Hampshire,112525,109565,+2.70,33.1  ,85.7 ,3339 ,1289,"https://en.wikipedia.org/wiki/Manchester,_New_Hampshire",area code,county,• land,• mayor,• metro,nan,• water, , 42.984, -71.4441,USA
260,High Point,North Carolina,112316,104371,+7.61,55.2  ,143.0 ,2015 ,778,"https://en.wikipedia.org/wiki/High_Point,_North_Carolina",area code,counties,• land,• mayor,• metro,nan,• water, , 35.990, -79.9905,USA
261,Downey,California,112269,111772,+0.44,12.4  ,32.1 ,9134 ,3527,"https://en.wikipedia.org/wiki/Downey,_California",area code,county,• land,nan,nan,• type,• water, ,33.9382,-118.1309,USA
262,Clovis,California,112022,95631,+17.14,24.2  ,62.7 ,4404 ,1700,"https://en.wikipedia.org/wiki/Clovis,_California",area code,county,• land,• mayor,nan,• type,• water, ,36.8282,-119.6849,USA
263,Pompano Beach,Florida,111954,99845,+12.13,24.0  ,62.2 ,4558 ,1760,"https://en.wikipedia.org/wiki/Pompano_Beach,_Florida",area code,county,• land,• mayor,• metro,• type,• water, , 26.241, -80.1339,USA
264,Pueblo,Colorado,111750,106595,+4.84,53.6  ,138.8 ,2058 ,795,"https://en.wikipedia.org/wiki/Pueblo,_Colorado",area code,county,• land,• mayor,nan,• type,• water, ,38.2699,-104.6123,USA
265,Elgin,Illinois,111683,108188,+3.23,37.4  ,96.9 ,2998 ,1158,"https://en.wikipedia.org/wiki/Elgin,_Illinois",area code,counties,• land,• mayor,nan,• type,• water, , 42.039, -88.3217,USA
266,Lowell,Massachusetts,111670,106519,+4.84,13.6  ,35.2 ,8129 ,3139,"https://en.wikipedia.org/wiki/Lowell,_Massachusetts",area code,county,• land,• mayor,nan,• type,• water, , 42.639, -71.3211,USA
267,Antioch,California,111535,102372,+8.95,29.4  ,76.1 ,3772 ,1456,"https://en.wikipedia.org/wiki/Antioch,_California",area code,county,• land,• mayor,• metro,nan,• water, ,37.9791,-121.7962,USA
268,West Palm Beach,Florida,111398,99919,+11.49,55.1  ,142.7 ,1963 ,758,"https://en.wikipedia.org/wiki/West_Palm_Beach,_Florida",area code,county,• land,• mayor,• metro,• type,• water, , 26.746, -80.1251,USA
269,Peoria,Illinois,111388,115007,−3.15,48.2  ,124.8 ,2371 ,915,"https://en.wikipedia.org/wiki/Peoria,_Illinois",area code,county,• land,• mayor,• metro,• type,• water, , 40.751, -89.6174,USA
270,Everett,Washington,111262,103019,+8.00,33.3  ,86.2 ,3275 ,1264,"https://en.wikipedia.org/wiki/Everett,_Washington",area code,county,• land,• mayor,• metro,• type,• water, ,47.9566,-122.1914,USA
271,Ventura,California,111128,106433,+4.41,21.8  ,56.5 ,5027 ,1941,"https://en.wikipedia.org/wiki/Ventura,_California",area code,county,• land,• mayor,nan,nan,• water, ,34.2678,-119.2542,USA
272,Centennial,Colorado,110831,100377,+10.41,29.5  ,76.4 ,3727 ,1439,"https://en.wikipedia.org/wiki/Centennial,_Colorado",area code,county,• land,• mayor,• metro,• type,• water, ,39.5906,-104.8691,USA
273,Lakeland,Florida,110516,97422,+13.44,65.9  ,170.7 ,1615 ,624,"https://en.wikipedia.org/wiki/Lakeland,_Florida",area code,county,• land,• mayor,• metro,• type,• water, , 28.055, -81.9549,USA
274,Gresham,Oregon,110158,105594,+4.32,23.3  ,60.3 ,4786 ,1848,"https://en.wikipedia.org/wiki/Gresham,_Oregon",area code,county,• land,• mayor,• metro,nan,• water, ,45.5023,-122.4416,USA
275,Richmond,California,110146,103701,+6.21,30.1  ,78.0 ,3648 ,1409,"https://en.wikipedia.org/wiki/Richmond,_California",area code,county,• land,nan,• metro,• type,• water, ,37.9523,-122.3606,USA
276,Billings,Montana,109550,104170,+5.16,43.7  ,113.2 ,2525 ,975,"https://en.wikipedia.org/wiki/Billings,_Montana",area code,county,• land,• mayor,• metro,• type,• water, ,45.7885,-108.5499,USA
277,Inglewood,California,109419,109673,−0.23,9.1  ,23.6 ,12160 ,4700,"https://en.wikipedia.org/wiki/Inglewood,_California",area codes,county,• land,nan,nan,• type,• water, ,33.9561,-118.3443,USA
278,Broken Arrow,Oklahoma,109171,98850,+10.44,61.7  ,159.8 ,1741 ,672,"https://en.wikipedia.org/wiki/Broken_Arrow,_Oklahoma",area code,counties,• land,• mayor,• metro,• type,• water, , 36.036, -95.7810,USA
279,Sandy Springs,Georgia,108797,93853,+15.92,37.7  ,97.6 ,2804 ,1083,"https://en.wikipedia.org/wiki/Sandy_Springs,_Georgia",area code,county,• land,• mayor,nan,nan,• water, , 33.931, -84.3687,USA
280,Jurupa Valley,California,108393,0,NA[ab],42.9  ,111.1 ,2414 ,932,"https://en.wikipedia.org/wiki/Jurupa_Valley,_California",area code,county,• land,• mayor,• metro,• type,• water, ,34.0026,-117.4676,USA
281,Hillsboro,Oregon,108389,91611,+18.31,25.0  ,64.7 ,4207 ,1624,"https://en.wikipedia.org/wiki/Hillsboro,_Oregon",area code,county,• land,• mayor,nan,• type,• water, ,45.5280,-122.9357,USA
282,Waterbury,Connecticut,108093,110366,−2.06,28.5  ,73.8 ,3799 ,1467,"https://en.wikipedia.org/wiki/Waterbury,_Connecticut",area code,county,• land,• mayor,nan,• type,• water, , 41.558, -73.0367,USA
283,Santa Maria,California,107408,99553,+7.89,22.8  ,59.1 ,4662 ,1800,"https://en.wikipedia.org/wiki/Santa_Maria,_California",area code,county,• land,• mayor,• metro,• type,• water, ,34.9332,-120.4438,USA
284,Boulder,Colorado,107353,97385,+10.24,24.8  ,64.2 ,4358 ,1683,"https://en.wikipedia.org/wiki/Boulder,_Colorado",area code,county,• land,• mayor,• metro,• type,• water, ,40.0270,-105.2519,USA
285,Greeley,Colorado,107348,92889,+15.57,47.8  ,123.8 ,2176 ,840,"https://en.wikipedia.org/wiki/Greeley,_Colorado",area code,county,• land,• mayor,nan,• type,• water, ,40.4153,-104.7697,USA
286,Daly City,California,107008,101123,+5.82,7.6  ,19.7 ,14009 ,5409,"https://en.wikipedia.org/wiki/Daly_City,_California",area codes,county,• land,• mayor,nan,• type,• water, ,37.7009,-122.4650,USA
287,Meridian,Idaho,106804,75092,+42.23,29.8  ,77.2 ,3584 ,1384,"https://en.wikipedia.org/wiki/Meridian,_Idaho",area code,county,• land,• mayor,• metro,nan,• water, ,43.6142,-116.3989,USA
288,Lewisville,Texas,106586,95290,+11.85,36.7  ,95.1 ,2852 ,1101,"https://en.wikipedia.org/wiki/Lewisville,_Texas",area code,counties,• land,nan,nan,• type,• water, , 33.046, -96.9818,USA
289,Davie,Florida,106558,91992,+15.83,34.9  ,90.4 ,2919 ,1127,"https://en.wikipedia.org/wiki/Davie,_Florida",nan,nan,nan,nan,nan,nan,nan, , 26.079, -80.2850,USA
290,West Covina,California,106311,106098,+0.20,16.0  ,41.4 ,6740 ,2600,"https://en.wikipedia.org/wiki/West_Covina,_California",nan,nan,nan,nan,nan,nan,nan, ,34.0559,-117.9099,USA
291,League City,Texas,106244,83560,+27.15,51.2  ,132.6 ,1992 ,769,"https://en.wikipedia.org/wiki/League_City,_Texas",area code,counties,• land,• mayor,nan,• type,• water, , 29.490, -95.1091,USA
292,Tyler,Texas,105729,96900,+9.11,56.6  ,146.6 ,1852 ,715,"https://en.wikipedia.org/wiki/Tyler,_Texas",area code,county,• land,• mayor,• metro,• type,• water, , 32.317, -95.3059,USA
293,Norwalk,California,105120,105549,−0.41,9.7  ,25.1 ,10946 ,4226,"https://en.wikipedia.org/wiki/Norwalk,_California",area code,county,• land,nan,nan,• type,• water, ,33.9076,-118.0835,USA
294,San Mateo,California,105025,97207,+8.04,12.1  ,31.3 ,8592 ,3317,"https://en.wikipedia.org/wiki/San_Mateo,_California",area code,county,• land,• mayor,nan,nan,• water, ,37.5603,-122.3106,USA
295,Green Bay,Wisconsin,104879,104057,+0.79,45.4  ,117.6 ,2316 ,894,"https://en.wikipedia.org/wiki/Green_Bay,_Wisconsin",area code,county,• land,• mayor,• metro,nan,• water, , 44.520, -87.9842,USA
296,Wichita Falls,Texas,104576,104553,+0.02,72.2  ,187.0 ,1450 ,560,"https://en.wikipedia.org/wiki/Wichita_Falls,_Texas",nan,nan,nan,nan,nan,nan,nan, , 33.906, -98.5259,USA
297,Sparks,Nevada,104246,90264,+15.49,35.9  ,93.0 ,2810 ,1080,"https://en.wikipedia.org/wiki/Sparks,_Nevada",area code,county,• land,• mayor,nan,• type,• water, ,39.5544,-119.7356,USA
298,Lakewood,New Jersey,104157,92843,+12.19,24.7  ,64.0 ,4079 ,1575,"https://en.wikipedia.org/wiki/Lakewood_Township,_New_Jersey",area code,county,• land,• mayor,nan,• type,• water, , 40.077, -74.2004,USA
299,Burbank,California,103695,103340,+0.34,17.4  ,45.1 ,6003 ,2318,"https://en.wikipedia.org/wiki/Burbank,_California",area codes,county,• land,• mayor,nan,• type,• water, ,34.1901,-118.3264,USA
300,Rialto,California,103440,99171,+4.30,22.3  ,57.8 ,4633 ,1789,"https://en.wikipedia.org/wiki/Rialto,_California",nan,nan,nan,nan,nan,nan,nan, ,34.1118,-117.3883,USA
301,Allen,Texas,103383,84246,+22.72,27.1  ,70.2 ,3715 ,1434,"https://en.wikipedia.org/wiki/Allen,_Texas",area code,county,nan,nan,nan,• type,nan, , 33.099, -96.6631,USA
302,El Cajon,California,103241,99478,+3.78,14.5  ,37.6 ,7156 ,2763,"https://en.wikipedia.org/wiki/El_Cajon,_California",area code,county,• land,• mayor,nan,nan,• water, ,32.8017,-116.9604,USA
303,Las Cruces,New Mexico,102926,97618,+5.44,76.9  ,199.2 ,1323 ,511,"https://en.wikipedia.org/wiki/Las_Cruces,_New_Mexico",nan,county,• land,• mayor,• metro,• type,• water, ,32.3264,-106.7897,USA
304,Renton,Washington,102153,90927,+12.35,23.4  ,60.6 ,4314 ,1666,"https://en.wikipedia.org/wiki/Renton,_Washington",nan,nan,nan,nan,nan,nan,nan, ,47.4761,-122.1920,USA
305,Davenport,Iowa,102085,99685,+2.41,62.9  ,162.9 ,1631 ,630,"https://en.wikipedia.org/wiki/Davenport,_Iowa",area code,county,• land,• mayor,• metro,• type,• water, , 41.554, -90.6040,USA
306,South Bend,Indiana,101860,101168,+0.68,41.4  ,107.2 ,2457 ,949,"https://en.wikipedia.org/wiki/South_Bend,_Indiana",area code,county,• land,• mayor,• metro,• type,• water, , 41.676, -86.2690,USA
307,Vista,California,101224,93834,+7.88,18.7  ,48.4 ,5436 ,2099,"https://en.wikipedia.org/wiki/Vista,_California",area codes,county,• land,• mayor,nan,• type,• water, ,33.1895,-117.2386,USA
308,Tuscaloosa,Alabama,101113,90468,+11.77,71.7  ,185.7 ,1399 ,540,"https://en.wikipedia.org/wiki/Tuscaloosa,_Alabama",area code,county,• land,• mayor,• metro,• type,• water, , 33.206, -87.5346,USA
309,Clinton,Michigan,100800,96796,+4.14,28.1  ,72.8 ,3573 ,1380,"https://en.wikipedia.org/wiki/Clinton_Township,_Macomb_County,_Michigan",area code,county,• land,nan,nan,nan,• water, , 42.590, -82.9170,USA
310,Edison,New Jersey,100693,99967,+0.73,30.1  ,78.0 ,3389 ,1309,"https://en.wikipedia.org/wiki/Edison,_New_Jersey",area code,county,• land,• mayor,nan,• type,• water, , 40.504, -74.3494,USA
311,Woodbridge,New Jersey,100450,99585,+0.87,23.3  ,60.3 ,4351 ,1680,"https://en.wikipedia.org/wiki/Woodbridge_Township,_New_Jersey",area code,county,• land,• mayor,nan,• type,• water, , 40.560, -74.2927,USA
312,San Angelo,Texas,100215,93200,+7.53,59.9  ,155.1 ,1681 ,649,"https://en.wikipedia.org/wiki/San_Angelo,_Texas",area code,county,• land,nan,• metro,• type,• water, ,31.4411,-100.4505,USA
313,Kenosha,Wisconsin,100164,99218,+0.95,28.0  ,72.5 ,3577 ,1381,"https://en.wikipedia.org/wiki/Kenosha,_Wisconsin",area code,county,• land,• mayor,nan,• type,• water, , 42.582, -87.8456,USA
314,Vacaville,California,100154,92428,+8.36,29.0  ,75.1 ,3449 ,1332,"https://en.wikipedia.org/wiki/Vacaville,_California",area code,county,• land,• mayor,nan,nan,• water, ,38.3539,-121.9728,USA
